[{"OBJECT_NAME":"STARLINK-3937","OBJECT_ID":"2022-051K","EPOCH":"2025-10-09T22:02:16.324800","MEAN_MOTION":15.08837008,"ECCENTRICITY":0.0001288,"INCLINATION":53.2162,"RA_OF_ASC_NODE":85.9583,"ARG_OF_PERICENTER":86.6243,"MEAN_ANOMALY":273.4897,"EPHEMERIS_TYPE":0,"CLASSIFICATION_TYPE":"U","NORAD_CAT_ID":52542,"ELEMENT_SET_NO":999,"REV_AT_EPOCH":18868,"BSTAR":7.9365e-6,"MEAN_MOTION_DOT":-1.62e-6,"MEAN_MOTION_DDOT":0},{"OBJECT_NAME":"STARLINK-3926","OBJECT_ID":"2022-051L","EPOCH":"2025-10-09T22:18:09.749664","MEAN_MOTION":15.08844102,"ECCENTRICITY":0.0001349,"INCLINATION":53.2165,"RA_OF_ASC_NODE":85.9089,"ARG_OF_PERICENTER":94.9263,"MEAN_ANOMALY":265.1883,"EPHEMERIS_TYPE":0,"CLASSIFICATION_TYPE":"U","NORAD_CAT_ID":52543,"ELEMENT_SET_NO":999,"REV_AT_EPOCH":18868,"BSTAR":5.6509e-5,"MEAN_MOTION_DOT":6.12e-6,"MEAN_MOTION_DDOT":0},{"OBJECT_NAME":"STARLINK-3944","OBJECT_ID":"2022-051M","EPOCH":"2025-10-09T22:46:39.656640","MEAN_MOTION":15.08834743,"ECCENTRICITY":0.00017785,"INCLINATION":53.216,"RA_OF_ASC_NODE":90.8348,"ARG_OF_PERICENTER":75.4466,"MEAN_ANOMALY":284.6723,"EPHEMERIS_TYPE":0,"CLASSIFICATION_TYPE":"U","NORAD_CAT_ID":52544,"ELEMENT_SET_NO":999,"REV_AT_EPOCH":18861,"BSTAR":-3.8362301e-5,"MEAN_MOTION_DOT":-8.99e-6,"MEAN_MOTION_DDOT":0},{"OBJECT_NAME":"STARLINK-3948","OBJECT_ID":"2022-051P","EPOCH":"2025-10-09T21:21:13.714848","MEAN_MOTION":15.08829681,"ECCENTRICITY":0.0001416,"INCLINATION":53.2176,"RA_OF_ASC_NODE":85.855,"ARG_OF_PERICENTER":85.0462,"MEAN_ANOMALY":275.0692,"EPHEMERIS_TYPE":0,"CLASSIFICATION_TYPE":"U","NORAD_CAT_ID":52546,"ELEMENT_SET_NO":999,"REV_AT_EPOCH":18868,"BSTAR":-8.5847e-5,"MEAN_MOTION_DOT":-1.654e-5,"MEAN_MOTION_DDOT":0},{"OBJECT_NAME":"STARLINK-3931","OBJECT_ID":"2022-051R","EPOCH":"2025-10-09T19:55:06.934368","MEAN_MOTION":15.08841658,"ECCENTRICITY":0.00013784,"INCLINATION":53.2169,"RA_OF_ASC_NODE":86.355,"ARG_OF_PERICENTER":80.7606,"MEAN_ANOMALY":279.3542,"EPHEMERIS_TYPE":0,"CLASSIFICATION_TYPE":"U","NORAD_CAT_ID":52548,"ELEMENT_SET_NO":999,"REV_AT_EPOCH":18867,"BSTAR":-6.443603e-5,"MEAN_MOTION_DOT":-1.313e-5,"MEAN_MOTION_DDOT":0},{"OBJECT_NAME":"STARLINK-3935","OBJECT_ID":"2022-051S","EPOCH":"2025-10-09T10:49:16.430304","MEAN_MOTION":15.08841552,"ECCENTRICITY":0.0001273,"INCLINATION":53.2169,"RA_OF_ASC_NODE":88.057,"ARG_OF_PERICENTER":89.1575,"MEAN_ANOMALY":270.9563,"EPHEMERIS_TYPE":0,"CLASSIFICATION_TYPE":"U","NORAD_CAT_ID":52549,"ELEMENT_SET_NO":999,"REV_AT_EPOCH":18861,"BSTAR":-1.8892e-5,"MEAN_MOTION_DOT":-5.89e-6,"MEAN_MOTION_DDOT":0},{"OBJECT_NAME":"STARLINK-3965","OBJECT_ID":"2022-051T","EPOCH":"2025-10-09T10:33:22.333248","MEAN_MOTION":15.08851951,"ECCENTRICITY":0.0001428,"INCLINATION":53.2164,"RA_OF_ASC_NODE":88.1066,"ARG_OF_PERICENTER":87.0575,"MEAN_ANOMALY":273.0581,"EPHEMERIS_TYPE":0,"CLASSIFICATION_TYPE":"U","NORAD_CAT_ID":52550,"ELEMENT_SET_NO":999,"REV_AT_EPOCH":18861,"BSTAR":-0.00013062,"MEAN_MOTION_DOT":-2.367e-5,"MEAN_MOTION_DDOT":0},{"OBJECT_NAME":"STARLINK-3969","OBJECT_ID":"2022-051U","EPOCH":"2025-10-09T21:51:40.564224","MEAN_MOTION":15.08842768,"ECCENTRICITY":0.0001348,"INCLINATION":53.2155,"RA_OF_ASC_NODE":85.9903,"ARG_OF_PERICENTER":84.3021,"MEAN_ANOMALY":275.8125,"EPHEMERIS_TYPE":0,"CLASSIFICATION_TYPE":"U","NORAD_CAT_ID":52551,"ELEMENT_SET_NO":999,"REV_AT_EPOCH":18868,"BSTAR":3.6942e-5,"MEAN_MOTION_DOT":3.0e-6,"MEAN_MOTION_DDOT":0},{"OBJECT_NAME":"STARLINK-3966","OBJECT_ID":"2022-051V","EPOCH":"2025-10-09T20:11:01.772736","MEAN_MOTION":15.08844849,"ECCENTRICITY":0.00014206,"INCLINATION":53.216,"RA_OF_ASC_NODE":86.4596,"ARG_OF_PERICENTER":100.1178,"MEAN_ANOMALY":259.9975,"EPHEMERIS_TYPE":0,"CLASSIFICATION_TYPE":"U","NORAD_CAT_ID":52552,"ELEMENT_SET_NO":999,"REV_AT_EPOCH":18867,"BSTAR":0.00019215723,"MEAN_MOTION_DOT":2.772e-5,"MEAN_MOTION_DDOT":0},{"OBJECT_NAME":"STARLINK-3858","OBJECT_ID":"2022-051W","EPOCH":"2025-10-09T22:34:01.256448","MEAN_MOTION":15.08819118,"ECCENTRICITY":0.00015969,"INCLINATION":53.2149,"RA_OF_ASC_NODE":85.5202,"ARG_OF_PERICENTER":67.3895,"MEAN_ANOMALY":292.7266,"EPHEMERIS_TYPE":0,"CLASSIFICATION_TYPE":"U","NORAD_CAT_ID":52553,"ELEMENT_SET_NO":999,"REV_AT_EPOCH":18869,"BSTAR":0.00012122407,"MEAN_MOTION_DOT":1.641e-5,"MEAN_MOTION_DDOT":0},{"OBJECT_NAME":"STARLINK-3770","OBJECT_ID":"2022-051X","EPOCH":"2025-10-09T22:41:18.481056","MEAN_MOTION":15.08865242,"ECCENTRICITY":0.00024691,"INCLINATION":53.2137,"RA_OF_ASC_NODE":90.8368,"ARG_OF_PERICENTER":77.2024,"MEAN_ANOMALY":282.9244,"EPHEMERIS_TYPE":0,"CLASSIFICATION_TYPE":"U","NORAD_CAT_ID":52554,"ELEMENT_SET_NO":999,"REV_AT_EPOCH":18861,"BSTAR":0.00019101304,"MEAN_MOTION_DOT":2.755e-5,"MEAN_MOTION_DDOT":0},{"OBJECT_NAME":"STARLINK-3763","OBJECT_ID":"2022-051Z","EPOCH":"2025-10-09T15:16:18.088608","MEAN_MOTION":15.50946518,"ECCENTRICITY":0.0003943,"INCLINATION":53.1874,"RA_OF_ASC_NODE":7.7689,"ARG_OF_PERICENTER":356.5866,"MEAN_ANOMALY":3.5116,"EPHEMERIS_TYPE":0,"CLASSIFICATION_TYPE":"U","NORAD_CAT_ID":52556,"ELEMENT_SET_NO":999,"REV_AT_EPOCH":18976,"BSTAR":0.0012489,"MEAN_MOTION_DOT":0.00073856,"MEAN_MOTION_DDOT":0},{"OBJECT_NAME":"STARLINK-3943","OBJECT_ID":"2022-051AA","EPOCH":"2025-10-09T22:55:12.551232","MEAN_MOTION":15.08882554,"ECCENTRICITY":0.00018983,"INCLINATION":53.2174,"RA_OF_ASC_NODE":85.7885,"ARG_OF_PERICENTER":108.3555,"MEAN_ANOMALY":251.7644,"EPHEMERIS_TYPE":0,"CLASSIFICATION_TYPE":"U","NORAD_CAT_ID":52557,"ELEMENT_SET_NO":999,"REV_AT_EPOCH":18869,"BSTAR":0.00042516348,"MEAN_MOTION_DOT":6.493e-5,"MEAN_MOTION_DDOT":0},{"OBJECT_NAME":"STARLINK-3953","OBJECT_ID":"2022-051AC","EPOCH":"2025-10-09T18:26:21.589152","MEAN_MOTION":15.08839955,"ECCENTRICITY":0.00013202,"INCLINATION":53.2166,"RA_OF_ASC_NODE":76.8131,"ARG_OF_PERICENTER":83.7532,"MEAN_ANOMALY":276.3611,"EPHEMERIS_TYPE":0,"CLASSIFICATION_TYPE":"U","NORAD_CAT_ID":52559,"ELEMENT_SET_NO":999,"REV_AT_EPOCH":18879,"BSTAR":-5.391707e-6,"MEAN_MOTION_DOT":-3.74e-6,"MEAN_MOTION_DDOT":0},{"OBJECT_NAME":"STARLINK-3956","OBJECT_ID":"2022-051AD","EPOCH":"2025-10-09T22:51:16.814880","MEAN_MOTION":15.08842001,"ECCENTRICITY":0.000108,"INCLINATION":53.217,"RA_OF_ASC_NODE":75.8038,"ARG_OF_PERICENTER":84.2702,"MEAN_ANOMALY":275.8413,"EPHEMERIS_TYPE":0,"CLASSIFICATION_TYPE":"U","NORAD_CAT_ID":52560,"ELEMENT_SET_NO":999,"REV_AT_EPOCH":18882,"BSTAR":0.00011300776,"MEAN_MOTION_DOT":1.511e-5,"MEAN_MOTION_DDOT":0},{"OBJECT_NAME":"STARLINK-3955","OBJECT_ID":"2022-051AE","EPOCH":"2025-10-09T22:25:27.855552","MEAN_MOTION":15.08834551,"ECCENTRICITY":0.00014398,"INCLINATION":53.2157,"RA_OF_ASC_NODE":90.8841,"ARG_OF_PERICENTER":88.1282,"MEAN_ANOMALY":271.9876,"EPHEMERIS_TYPE":0,"CLASSIFICATION_TYPE":"U","NORAD_CAT_ID":52561,"ELEMENT_SET_NO":999,"REV_AT_EPOCH":18861,"BSTAR":-4.420128e-5,"MEAN_MOTION_DOT":-9.91e-6,"MEAN_MOTION_DDOT":0}]
