STARLINK-3937           
1 52542U 22051K   25282.91824450 -.00000162  00000+0  79365-5 0  9994
2 52542  53.2162  85.9583 0001288  86.6243 273.4897 15.08837008188686
STARLINK-3926           
1 52543U 22051L   25282.92927951  .00000612  00000+0  56509-4 0  9999
2 52543  53.2165  85.9089 0001349  94.9263 265.1883 15.08844102188689
STARLINK-3944           
1 52544U 22051M   25282.94907010 -.00000899  00000+0 -38362-4 0  9992
2 52544  53.2160  90.8348 0001778  75.4466 284.6723 15.08834743188615
STARLINK-3948           
1 52546U 22051P   25282.88974207 -.00001654  00000+0 -85847-4 0  9999
2 52546  53.2176  85.8550 0001416  85.0462 275.0692 15.08829681188686
STARLINK-3931           
1 52548U 22051R   25282.82994137 -.00001313  00000+0 -64436-4 0  9992
2 52548  53.2169  86.3550 0001378  80.7606 279.3542 15.08841658188673
STARLINK-3935           
1 52549U 22051S   25282.45088461 -.00000589  00000+0 -18892-4 0  9995
2 52549  53.2169  88.0570 0001273  89.1575 270.9563 15.08841552188614
STARLINK-3965           
1 52550U 22051T   25282.43984182 -.00002367  00000+0 -13062-3 0  9999
2 52550  53.2164  88.1066 0001428  87.0575 273.0581 15.08851951188619
STARLINK-3969           
1 52551U 22051U   25282.91088616  .00000300  00000+0  36942-4 0  9996
2 52551  53.2155  85.9903 0001348  84.3021 275.8125 15.08842768188689
STARLINK-3966           
1 52552U 22051V   25282.84099274  .00002772  00000+0  19216-3 0  9990
2 52552  53.2160  86.4596 0001420 100.1178 259.9975 15.08844849188678
STARLINK-3858           
1 52553U 22051W   25282.94029232  .00001641  00000+0  12122-3 0  9992
2 52553  53.2149  85.5202 0001596  67.3895 292.7266 15.08819118188695
STARLINK-3770           
1 52554U 22051X   25282.94535279  .00002755  00000+0  19101-3 0  9997
2 52554  53.2137  90.8368 0002469  77.2024 282.9244 15.08865242188617
STARLINK-3763           
1 52556U 22051Z   25282.63632047  .00073856  00000+0  12489-2 0  9997
2 52556  53.1874   7.7689 0003943 356.5866   3.5116 15.50946518189769
STARLINK-3943           
1 52557U 22051AA  25282.95500638  .00006493  00000+0  42516-3 0  9991
2 52557  53.2174  85.7885 0001898 108.3555 251.7644 15.08882554188699
STARLINK-3953           
1 52559U 22051AC  25282.76830543 -.00000374  00000+0 -53917-5 0  9996
2 52559  53.2166  76.8131 0001320  83.7532 276.3611 15.08839955188793
STARLINK-3956           
1 52560U 22051AD  25282.95227795  .00001511  00000+0  11301-3 0  9999
2 52560  53.2170  75.8038 0001080  84.2702 275.8413 15.08842001188827
STARLINK-3955           
1 52561U 22051AE  25282.93435018 -.00000991  00000+0 -44201-4 0  9996
2 52561  53.2157  90.8841 0001439  88.1282 271.9876 15.08834551188614
